NORAD_CAT_ID,OBJECT_NAME,OBJECT_TYPE,EPOCH,MEAN_MOTION,ECCENTRICITY,INCLINATION,RA_OF_ASC_NODE,ARG_OF_PERICENTER,MEAN_ANOMALY,BSTAR,MEAN_MOTION_DOT,MEAN_MOTION_DDOT,TLE_LINE0,TLE_LINE1,TLE_LINE2,SEMIMAJOR_AXIS,PERIOD,APOGEE,PERIGEE,DECAYED
51867.0,STARLINK-3590,PAYLOAD,2023-11-26 12:49:09,15.08852082,0.0001505,53.2144,153.7864,86.8597,273.2568,0.00016699,2.372e-05,0.0,0 STARLINK-3590,1 51867U 22022R   23330.53414190  .00002372  00000-0  16699-3 0  9991,2 51867  53.2144 153.7864 0001505  86.8597 273.2568 15.08852082 97183,6917.843,95.437,540.75,538.667,0.0
51867.0,STARLINK-3590,PAYLOAD,2023-11-26 19:10:42,15.088455,0.0001451,53.2146,152.5982,91.1245,268.9913,4.1483e-05,3.72e-06,0.0,0 STARLINK-3590,1 51867U 22022R   23330.79910276  .00000372  00000-0  41483-4 0  9993,2 51867  53.2146 152.5982 0001451  91.1245 268.9913 15.08845500 97229,6917.864,95.437,540.732,538.725,0.0
51867.0,STARLINK-3590,PAYLOAD,2023-11-27 12:39:57,15.08837463,0.0001278,53.216,149.3282,84.1388,275.9749,4.5442e-06,-2.16e-06,0.0,0 STARLINK-3590,1 51867U 22022R   23331.52774822 -.00000216  00000-0  45442-5 0  9998,2 51867  53.2160 149.3282 0001278  84.1388 275.9749 15.08837463 97335,6917.888,95.438,540.637,538.869,0.0
51867.0,STARLINK-3590,PAYLOAD,2023-11-27 17:26:06,15.08841281,0.0001174,53.2162,148.4357,77.3841,282.7283,-4.8183e-05,-1.055e-05,0.0,0 STARLINK-3590,1 51867U 22022R   23331.72646639 -.00001055  00000-0 -48183-4 0  9991,2 51867  53.2162 148.4357 0001174  77.3841 282.7283 15.08841281 97368,6917.876,95.437,540.554,538.929,0.0
51867.0,STARLINK-3590,PAYLOAD,2023-11-28 12:30:43,15.08845883,0.0001405,53.2162,144.8685,88.7113,271.404,0.00010722,1.419e-05,0.0,0 STARLINK-3590,1 51867U 22022R   23332.52133682  .00001419  00000-0  10722-3 0  9998,2 51867  53.2162 144.8685 0001405  88.7113 271.4040 15.08845883 97488,6917.862,95.437,540.699,538.755,0.0
51867.0,STARLINK-3590,PAYLOAD,2023-11-28 17:16:53,15.08842413,0.0001356,53.2169,143.9767,76.8725,283.2418,7.2946e-05,8.73e-06,0.0,0 STARLINK-3590,1 51867U 22022R   23332.72006064  .00000873  00000-0  72946-4 0  9993,2 51867  53.2169 143.9767 0001356  76.8725 283.2418 15.08842413 97518,6917.873,95.437,540.676,538.8,0.0
51867.0,STARLINK-3590,PAYLOAD,2023-11-29 10:46:08,15.08834019,0.0001279,53.217,140.7064,80.0357,280.0779,3.6302e-05,2.9e-06,0.0,0 STARLINK-3590,1 51867U 22022R   23333.44870882  .00000290  00000-0  36302-4 0  9999,2 51867  53.2170 140.7064 0001279  80.0357 280.0779 15.08834019 97627,6917.899,95.438,540.648,538.879,0.0
51867.0,STARLINK-3590,PAYLOAD,2023-11-30 18:33:50,15.08839974,0.0001377,53.2173,134.7599,80.5157,279.599,8.4606e-05,1.059e-05,0.0,0 STARLINK-3590,1 51867U 22022R   23334.77350611  .00001059  00000-0  84606-4 0  9993,2 51867  53.2173 134.7599 0001377  80.5157 279.5990 15.08839974 97823,6917.88,95.438,540.698,538.793,0.0
51867.0,STARLINK-3590,PAYLOAD,2023-12-01 16:49:14,15.08838919,0.0001624,53.2174,130.5981,69.2627,290.8539,0.00018826,2.709e-05,0.0,0 STARLINK-3590,1 51867U 22022R   23335.70086619  .00002709  00000-0  18826-3 0  9994,2 51867  53.2174 130.5981 0001624  69.2627 290.8539 15.08838919 97962,6917.884,95.438,540.872,538.625,0.0
51867.0,STARLINK-3590,PAYLOAD,2023-12-02 13:29:16,15.0883277,0.0001519,53.2178,126.7325,77.8655,282.2507,9.6218e-06,-1.35e-06,0.0,0 STARLINK-3590,1 51867U 22022R   23336.56199727 -.00000135  00000-0  96218-5 0  9999,2 51867  53.2178 126.7325 0001519  77.8655 282.2507 15.08832770 98098,6917.902,95.438,540.818,538.717,0.0
51867.0,STARLINK-3590,PAYLOAD,2023-12-02 16:40:03,15.08820905,0.0001487,53.2173,126.1368,93.6221,266.4941,-0.00010141,-1.901e-05,0.0,0 STARLINK-3590,1 51867U 22022R   23336.69448701 -.00001901  00000-0 -10141-3 0  9994,2 51867  53.2173 126.1368 0001487  93.6221 266.4941 15.08820905 98119,6917.939,95.439,540.832,538.775,0.0
51867.0,STARLINK-3590,PAYLOAD,2023-12-03 13:20:04,15.08832609,0.0001394,53.218,122.2679,97.2642,262.8508,-6.3839e-05,-1.304e-05,0.0,0 STARLINK-3590,1 51867U 22022R   23337.55560403 -.00001304  00000-0 -63839-4 0  9994,2 51867  53.2180 122.2679 0001394  97.2642 262.8508 15.08832609 98240,6917.903,95.438,540.732,538.804,0.0
51867.0,STARLINK-3590,PAYLOAD,2023-12-03 19:41:36,15.08838298,0.0001453,53.2185,121.0773,91.0997,269.0161,-2.4574e-05,-6.79e-06,0.0,0 STARLINK-3590,1 51867U 22022R   23337.82056092 -.00000679  00000-0 -24574-4 0  9995,2 51867  53.2185 121.0773 0001453  91.0997 269.0161 15.08838298 98286,6917.886,95.438,540.756,538.745,0.0
51867.0,STARLINK-3590,PAYLOAD,2023-12-04 13:10:50,15.08838963,0.0001471,53.2183,117.8091,81.2995,278.8164,0.00037316,5.656e-05,0.0,0 STARLINK-3590,1 51867U 22022R   23338.54919181  .00005656  00000-0  37316-3 0  9997,2 51867  53.2183 117.8091 0001471  81.2995 278.8164 15.08838963 98391,6917.884,95.438,540.766,538.731,0.0
51867.0,STARLINK-3590,PAYLOAD,2023-12-05 13:01:40,15.08819298,0.0001588,53.218,113.35,101.4324,258.6846,-0.00012607,-2.293e-05,0.0,0 STARLINK-3590,1 51867U 22022R   23339.54283073 -.00002293  00000-0 -12607-3 0  9994,2 51867  53.2180 113.3500 0001588 101.4324 258.6846 15.08819298 98544,6917.944,95.439,540.907,538.71,0.0
51867.0,STARLINK-3590,PAYLOAD,2023-12-06 12:52:24,15.08850032,0.000171,53.2181,108.8913,140.7467,219.3649,0.00014786,2.067e-05,0.0,0 STARLINK-3590,1 51867U 22022R   23340.53639585  .00002067  00000-0  14786-3 0  9995,2 51867  53.2181 108.8913 0001710 140.7467 219.3649 15.08850032 98695,6917.85,95.437,540.898,538.532,0.0
51867.0,STARLINK-3590,PAYLOAD,2023-12-07 12:43:11,15.08847685,0.0001227,53.2185,104.4252,87.7129,272.4004,0.00011236,1.501e-05,0.0,0 STARLINK-3590,1 51867U 22022R   23341.52999699  .00001501  00000-0  11236-3 0  9999,2 51867  53.2185 104.4252 0001227  87.7129 272.4004 15.08847685 98847,6917.857,95.437,540.571,538.873,0.0
51867.0,STARLINK-3590,PAYLOAD,2023-12-07 17:29:21,15.08843123,0.0001315,53.2187,103.5346,124.348,235.7637,0.00014379,2.001e-05,0.0,0 STARLINK-3590,1 51867U 22022R   23341.72872159  .00002001  00000-0  14379-3 0  9999,2 51867  53.2187 103.5346 0001315 124.3480 235.7637 15.08843123 98879,6917.871,95.437,540.646,538.826,0.0
51867.0,STARLINK-3590,PAYLOAD,2023-12-08 07:47:50,15.08837503,0.000148,53.2182,100.8589,109.4988,250.6164,3.0404e-05,1.96e-06,0.0,0 STARLINK-3590,1 51867U 22022R   23342.32488603  .00000196  00000-0  30404-4 0  9994,2 51867  53.2182 100.8589 0001480 109.4988 250.6164 15.08837503 98969,6917.888,95.438,540.777,538.729,0.0
51867.0,STARLINK-3590,PAYLOAD,2023-12-08 12:33:58,15.08859074,9.86e-05,53.2166,99.9682,118.4489,241.6602,-0.00023125,-3.968e-05,0.0,0 STARLINK-3590,1 51867U 22022R   23342.52359818 -.00003968  00000-0 -23125-3 0  9994,2 51867  53.2166  99.9682 0000986 118.4489 241.6602 15.08859074 98996,6917.822,95.436,540.369,539.005,0.0
51867.0,STARLINK-3590,PAYLOAD,2023-12-09 12:24:45,15.08842001,0.0001259,53.2173,95.5077,98.0574,262.0561,7.5477e-05,9.14e-06,0.0,0 STARLINK-3590,1 51867U 22022R   23343.51719606  .00000914  00000-0  75477-4 0  9993,2 51867  53.2173  95.5077 0001259  98.0574 262.0561 15.08842001 99147,6917.874,95.437,540.61,538.868,0.0
51867.0,STARLINK-3590,PAYLOAD,2023-12-09 17:10:54,15.08844243,0.000137,53.216,94.6144,103.6432,256.4713,9.6162e-05,1.243e-05,0.0,0 STARLINK-3590,1 51867U 22022R   23343.71591319  .00001243  00000-0  96162-4 0  9994,2 51867  53.2160  94.6144 0001370 103.6432 256.4713 15.08844243 99177,6917.867,95.437,540.68,538.785,0.0
51867.0,STARLINK-3590,PAYLOAD,2023-12-10 12:15:33,15.0883946,0.0001241,53.2181,91.0477,92.3215,267.792,1.623e-05,-3e-07,0.0,0 STARLINK-3590,1 51867U 22022R   23344.51079957 -.00000030  00000-0  16230-4 0  9994,2 51867  53.2181  91.0477 0001241  92.3215 267.7920 15.08839460 99293,6917.882,95.438,540.606,538.889,0.0
51867.0,STARLINK-3590,PAYLOAD,2023-12-10 13:50:56,15.08840443,0.0001262,53.2179,90.7497,103.4262,256.6871,2.0536e-05,3.9e-07,0.0,0 STARLINK-3590,1 51867U 22022R   23344.57703823  .00000039  00000-0  20536-4 0  9998,2 51867  53.2179  90.7497 0001262 103.4262 256.6871 15.08840443 99304,6917.879,95.438,540.617,538.871,0.0
51867.0,STARLINK-3590,PAYLOAD,2023-12-11 13:41:42,15.08853463,0.0001369,53.2184,86.2899,102.4329,257.6816,-0.00014902,-2.66e-05,0.0,0 STARLINK-3590,1 51867U 22022R   23345.57063656 -.00002660  00000-0 -14902-3 0  9995,2 51867  53.2184  86.2899 0001369 102.4329 257.6816 15.08853463 99459,6917.839,95.437,540.651,538.757,0.0
51867.0,STARLINK-3590,PAYLOAD,2023-12-12 11:57:07,15.08839697,0.0001427,53.2186,82.127,101.5929,258.5224,5.6197e-05,6.07e-06,0.0,0 STARLINK-3590,1 51867U 22022R   23346.49799857  .00000607  00000-0  56197-4 0  9996,2 51867  53.2186  82.1270 0001427 101.5929 258.5224 15.08839697 99591,6917.881,95.438,540.733,538.759,0.0
51867.0,STARLINK-3590,PAYLOAD,2023-12-12 13:32:30,15.08840903,0.0001424,53.2187,81.8298,99.8604,260.2548,6.4656e-05,7.41e-06,0.0,0 STARLINK-3590,1 51867U 22022R   23346.56423761  .00000741  00000-0  64656-4 0  9990,2 51867  53.2187  81.8298 0001424  99.8604 260.2548 15.08840903 99607,6917.878,95.437,540.728,538.758,0.0
51867.0,STARLINK-3590,PAYLOAD,2023-12-13 11:47:54,15.08838309,0.0001427,53.2187,77.6665,100.3915,259.7238,3.6109e-05,2.87e-06,0.0,0 STARLINK-3590,1 51867U 22022R   23347.49160070  .00000287  00000-0  36109-4 0  9991,2 51867  53.2187  77.6665 0001427 100.3915 259.7238 15.08838309 99745,6917.886,95.438,540.738,538.763,0.0
51867.0,STARLINK-3590,PAYLOAD,2023-12-14 11:38:41,15.0883738,0.0001382,53.2183,73.2057,100.1662,259.9486,-1.3324e-06,-3.09e-06,0.0,0 STARLINK-3590,1 51867U 22022R   23348.48520455 -.00000309  00000-0 -13324-5 0  9990,2 51867  53.2183  73.2057 0001382 100.1662 259.9486 15.08837380 99896,6917.888,95.438,540.709,538.797,0.0
51867.0,STARLINK-3590,PAYLOAD,2023-12-14 13:14:05,15.0879969,0.0001486,53.2181,72.9067,83.9314,276.1848,0.00053866,8.286e-05,0.0,0 STARLINK-3590,1 51867U 22022R   23348.55145003  .00008286  00000-0  53866-3 0  9993,2 51867  53.2181  72.9067 0001486  83.9314 276.1848 15.08799690 99904,6918.004,95.44,540.897,538.841,0.0
